NORAD_CAT_ID,OBJECT_NAME,OBJECT_TYPE,EPOCH,MEAN_MOTION,ECCENTRICITY,INCLINATION,RA_OF_ASC_NODE,ARG_OF_PERICENTER,MEAN_ANOMALY,BSTAR,MEAN_MOTION_DOT,MEAN_MOTION_DDOT,TLE_LINE0,TLE_LINE1,TLE_LINE2,SEMIMAJOR_AXIS,PERIOD,APOGEE,PERIGEE,DECAYED
52121.0,STARLINK-3678,PAYLOAD,2023-12-03 13:28:00,15.08836797,0.0001754,53.2156,182.2543,66.8613,293.2563,-0.00021457,-3.701e-05,0.0,0 STARLINK-3678,1 52121U 22029AK  23337.56111593 -.00003701  00000-0 -21457-3 0  9990,2 52121  53.2156 182.2543 0001754  66.8613 293.2563 15.08836797 96051,6917.89,95.438,540.969,538.542,0.0
52121.0,STARLINK-3678,PAYLOAD,2023-12-03 19:49:33,15.08829618,0.0001366,53.2145,181.0573,73.109,287.0052,-0.00037336,-6.223e-05,0.0,0 STARLINK-3678,1 52121U 22029AK  23337.82608056 -.00006223  00000-0 -37336-3 0  9999,2 52121  53.2145 181.0573 0001366  73.1090 287.0052 15.08829618 96090,6917.912,95.438,540.722,538.832,0.0
52121.0,STARLINK-3678,PAYLOAD,2023-12-04 13:18:48,15.08795724,0.0001691,53.2163,177.7853,79.64,280.4783,0.0004819,7.381e-05,0.0,0 STARLINK-3678,1 52121U 22029AK  23338.55473317  .00007381  00000-0  48190-3 0  9994,2 52121  53.2163 177.7853 0001691  79.6400 280.4783 15.08795724 96201,6918.016,95.44,541.051,538.711,0.0
52121.0,STARLINK-3678,PAYLOAD,2023-12-04 16:29:34,15.08822868,0.0001436,53.2158,177.1909,93.4974,266.6183,0.00017275,2.461e-05,0.0,0 STARLINK-3678,1 52121U 22029AK  23338.68720973  .00002461  00000-0  17275-3 0  9995,2 52121  53.2158 177.1909 0001436  93.4974 266.6183 15.08822868 96220,6917.933,95.439,540.791,538.804,0.0
52121.0,STARLINK-3678,PAYLOAD,2023-12-05 13:09:33,15.08850095,0.0001309,53.2153,173.3236,90.8905,269.2237,0.00030255,4.532e-05,0.0,0 STARLINK-3678,1 52121U 22029AK  23339.54830993  .00004532  00000-0  30255-3 0  9999,2 52121  53.2153 173.3236 0001309  90.8905 269.2237 15.08850095 96356,6917.85,95.437,540.62,538.809,0.0
52121.0,STARLINK-3678,PAYLOAD,2023-12-06 13:00:21,15.08843749,0.0001242,53.2155,168.863,88.5164,271.5971,1.4532e-05,-5.7e-07,0.0,0 STARLINK-3678,1 52121U 22029AK  23340.54191355 -.00000057  00000-0  14532-4 0  9993,2 52121  53.2155 168.8630 0001242  88.5164 271.5971 15.08843749 96508,6917.869,95.437,540.593,538.875,0.0
52121.0,STARLINK-3678,PAYLOAD,2023-12-07 12:51:08,15.08839909,0.0001273,53.2155,164.4024,87.5262,272.5876,9.5439e-06,-1.36e-06,0.0,0 STARLINK-3678,1 52121U 22029AK  23341.53551732 -.00000136  00000-0  95439-5 0  9996,2 52121  53.2155 164.4024 0001273  87.5262 272.5876 15.08839909 96653,6917.881,95.438,540.626,538.865,0.0
52121.0,STARLINK-3678,PAYLOAD,2023-12-08 12:41:55,15.08840257,0.0001354,53.2154,159.9417,83.0358,277.0788,3.0566e-05,1.99e-06,0.0,0 STARLINK-3678,1 52121U 22029AK  23342.52911787  .00000199  00000-0  30566-4 0  9993,2 52121  53.2154 159.9417 0001354  83.0358 277.0788 15.08840257 96801,6917.88,95.438,540.681,538.808,0.0
52121.0,STARLINK-3678,PAYLOAD,2023-12-09 10:57:19,15.08838545,0.0001304,53.2155,155.7785,87.4349,272.6792,1.2928e-05,-8.2e-07,0.0,0 STARLINK-3678,1 52121U 22029AK  23343.45647995 -.00000082  00000-0  12928-4 0  9997,2 52121  53.2155 155.7785 0001304  87.4349 272.6792 15.08838545 96945,6917.885,95.438,540.652,538.848,0.0
52121.0,STARLINK-3678,PAYLOAD,2023-12-09 22:05:01,15.0884293,0.0001192,53.2176,153.7011,29.7821,330.3239,5.2799e-07,-2.79e-06,0.0,0 STARLINK-3678,1 52121U 22029AK  23343.92015511 -.00000279  00000-0  52799-6 0  9992,2 52121  53.2176 153.7011 0001192  29.7821 330.3239 15.08842930 97017,6917.871,95.437,540.561,538.912,0.0
52121.0,STARLINK-3678,PAYLOAD,2023-12-10 18:45:02,15.08838386,0.0001318,53.2161,149.8308,87.2989,272.8154,5.9025e-05,6.52e-06,0.0,0 STARLINK-3678,1 52121U 22029AK  23344.78128089  .00000652  00000-0  59025-4 0  9993,2 52121  53.2161 149.8308 0001318  87.2989 272.8154 15.08838386 97140,6917.885,95.438,540.662,538.839,0.0
52121.0,STARLINK-3678,PAYLOAD,2023-12-11 18:35:49,15.08840151,0.0001354,53.2164,145.3725,82.8116,277.303,9.0075e-05,1.146e-05,0.0,0 STARLINK-3678,1 52121U 22029AK  23345.77488021  .00001146  00000-0  90075-4 0  9997,2 52121  53.2164 145.3725 0001354  82.8116 277.3030 15.08840151 97292,6917.88,95.438,540.682,538.808,0.0
52121.0,STARLINK-3678,PAYLOAD,2023-12-12 16:51:13,15.08845895,0.0001577,53.2157,141.2141,74.8524,285.2643,7.7289e-05,9.42e-06,0.0,0 STARLINK-3678,1 52121U 22029AK  23346.70223743  .00000942  00000-0  77289-4 0  9994,2 52121  53.2157 141.2141 0001577  74.8524 285.2643 15.08845895 97436,6917.862,95.437,540.818,538.636,0.0
52121.0,STARLINK-3678,PAYLOAD,2023-12-13 13:31:13,15.08845094,0.0001349,53.2171,137.3432,83.9739,276.1407,2.5843e-05,1.23e-06,0.0,0 STARLINK-3678,1 52121U 22029AK  23347.56335566  .00000123  00000-0  25843-4 0  9996,2 52121  53.2171 137.3432 0001349  83.9739 276.1407 15.08845094 97569,6917.865,95.437,540.663,538.797,0.0
52121.0,STARLINK-3678,PAYLOAD,2023-12-13 16:42:00,15.08843638,0.000134,53.2168,136.7492,98.4641,261.6503,8.7084e-06,-1.49e-06,0.0,0 STARLINK-3678,1 52121U 22029AK  23347.69583597 -.00000149  00000-0  87084-5 0  9994,2 52121  53.2168 136.7492 0001340  98.4641 261.6503 15.08843638 97588,6917.869,95.437,540.661,538.807,0.0
52121.0,STARLINK-3678,PAYLOAD,2023-12-14 13:22:01,15.08837403,0.0001403,53.2168,132.8793,101.8012,258.3138,-8.0144e-05,-1.563e-05,0.0,0 STARLINK-3678,1 52121U 22029AK  23348.55696356 -.00001563  00000-0 -80144-4 0  9999,2 52121  53.2168 132.8793 0001403 101.8012 258.3138 15.08837403 97715,6917.888,95.438,540.724,538.783,0.0
52121.0,STARLINK-3678,PAYLOAD,2023-12-14 14:57:24,15.08837267,0.0001553,53.2168,132.5826,106.1005,254.0158,-6.3822e-05,-1.304e-05,0.0,0 STARLINK-3678,1 52121U 22029AK  23348.62320291 -.00001304  00000-0 -63822-4 0  9996,2 52121  53.2168 132.5826 0001553 106.1005 254.0158 15.08837267 97729,6917.889,95.438,540.828,538.679,0.0
52121.0,STARLINK-3678,PAYLOAD,2023-12-15 14:48:11,15.08834306,0.0001532,53.217,128.1222,104.8214,255.2948,6.1021e-05,6.83e-06,0.0,0 STARLINK-3678,1 52121U 22029AK  23349.61680246  .00000683  00000-0  61021-4 0  9991,2 52121  53.2170 128.1222 0001532 104.8214 255.2948 15.08834306 97874,6917.898,95.438,540.823,538.703,0.0
52121.0,STARLINK-3678,PAYLOAD,2023-12-16 14:38:58,15.08837776,0.0001319,53.216,123.6628,95.5395,264.5747,7.5061e-05,9.07e-06,0.0,0 STARLINK-3678,1 52121U 22029AK  23350.61040452  .00000907  00000-0  75061-4 0  9990,2 52121  53.2160 123.6628 0001319  95.5395 264.5747 15.08837776 98024,6917.887,95.438,540.665,538.84,0.0
52121.0,STARLINK-3678,PAYLOAD,2023-12-16 16:14:21,15.08839378,0.0001299,53.2161,123.3657,91.5722,268.5419,8.8323e-05,1.118e-05,0.0,0 STARLINK-3678,1 52121U 22029AK  23350.67664344  .00001118  00000-0  88323-4 0  9998,2 52121  53.2161 123.3657 0001299  91.5722 268.5419 15.08839378 98032,6917.882,95.438,540.646,538.849,0.0
52121.0,STARLINK-3678,PAYLOAD,2023-12-17 11:19:00,15.08836225,0.0001241,53.2163,119.7971,90.7089,269.4046,3.3766e-05,2.5e-06,0.0,0 STARLINK-3678,1 52121U 22029AK  23351.47152905  .00000250  00000-0  33766-4 0  9999,2 52121  53.2163 119.7971 0001241  90.7089 269.4046 15.08836225 98153,6917.892,95.438,540.615,538.898,0.0
52121.0,STARLINK-3678,PAYLOAD,2023-12-17 14:29:46,15.08838455,0.0001247,53.2159,119.2034,87.8622,272.2513,5.5382e-05,5.94e-06,0.0,0 STARLINK-3678,1 52121U 22029AK  23351.60400768  .00000594  00000-0  55382-4 0  9996,2 52121  53.2159 119.2034 0001247  87.8622 272.2513 15.08838455 98179,6917.885,95.438,540.613,538.887,0.0
52121.0,STARLINK-3678,PAYLOAD,2023-12-17 16:05:09,15.0884073,0.0001284,53.2163,118.9054,82.4023,277.7115,7.1231e-05,8.46e-06,0.0,0 STARLINK-3678,1 52121U 22029AK  23351.67024617  .00000846  00000-0  71231-4 0  9999,2 52121  53.2163 118.9054 0001284  82.4023 277.7115 15.08840730 98187,6917.878,95.438,540.631,538.855,0.0
52121.0,STARLINK-3678,PAYLOAD,2023-12-18 11:09:46,15.08844585,0.0001277,53.2166,115.3361,91.3739,268.7399,6.806e-05,7.96e-06,0.0,0 STARLINK-3678,1 52121U 22029AK  23352.46512336  .00000796  00000-0  68060-4 0  9997,2 52121  53.2166 115.3361 0001277  91.3739 268.7399 15.08844585 98307,6917.866,95.437,540.615,538.848,0.0
52121.0,STARLINK-3678,PAYLOAD,2023-12-18 14:20:32,15.08847621,0.0001284,53.2163,114.7431,80.7293,279.3845,0.00010661,1.41e-05,0.0,0 STARLINK-3678,1 52121U 22029AK  23352.59760063  .00001410  00000-0  10661-3 0  9990,2 52121  53.2163 114.7431 0001284  80.7293 279.3845 15.08847621 98320,6917.857,95.437,540.61,538.834,0.0
52121.0,STARLINK-3678,PAYLOAD,2023-12-18 15:55:55,15.08850554,0.000133,53.2167,114.4451,78.3516,281.7625,0.00015208,2.134e-05,0.0,0 STARLINK-3678,1 52121U 22029AK  23352.66383767  .00002134  00000-0  15208-3 0  9996,2 52121  53.2167 114.4451 0001330  78.3516 281.7625 15.08850554 98339,6917.848,95.437,540.633,538.793,0.0
52121.0,STARLINK-3678,PAYLOAD,2023-12-19 14:11:20,15.08842972,0.0001392,53.2178,110.2794,81.794,278.321,3.7792e-05,3.14e-06,0.0,0 STARLINK-3678,1 52121U 22029AK  23353.59120514  .00000314  00000-0  37792-4 0  9999,2 52121  53.2178 110.2794 0001392  81.7940 278.3210 15.08842972 98474,6917.871,95.437,540.699,538.773,0.0
52121.0,STARLINK-3678,PAYLOAD,2023-12-19 15:46:43,15.08845481,0.0001474,53.2182,109.9813,76.7418,283.3738,5.5912e-05,6.02e-06,0.0,0 STARLINK-3678,1 52121U 22029AK  23353.65744326  .00000602  00000-0  55912-4 0  9993,2 52121  53.2182 109.9813 0001474  76.7418 283.3738 15.08845481 98481,6917.864,95.437,540.748,538.709,0.0
52121.0,STARLINK-3678,PAYLOAD,2023-12-20 14:02:07,15.08839915,0.0001686,53.2188,105.8184,70.3877,289.7297,-7.2899e-05,-1.448e-05,0.0,0 STARLINK-3678,1 52121U 22029AK  23354.58481257 -.00001448  00000-0 -72899-4 0  9991,2 52121  53.2188 105.8184 0001686  70.3877 289.7297 15.08839915 98628,6917.881,95.438,540.912,538.579,0.0
52121.0,STARLINK-3678,PAYLOAD,2023-12-21 12:17:31,15.08845373,0.0001324,53.2175,101.6619,96.608,263.5063,8.5582e-05,1.075e-05,0.0,0 STARLINK-3678,1 52121U 22029AK  23355.51216616  .00001075  00000-0  85582-4 0  9997,2 52121  53.2175 101.6619 0001324  96.6080 263.5063 15.08845373 98768,6917.864,95.437,540.645,538.813,0.0
